{
  "type": "FeatureCollection",
  "features": [
    {
      "type": "Feature",
      "properties": {
        "norad_id": 58701,
        "name": "TIANMU-1 16",
        "group": "weather",
        "lat": 32.60547776807867,
        "lon": 154.99050127833738,
        "alt_km": 489.5907146790614,
        "timestamp": "2025-12-04T21:36:15.517101+00:00",
        "meta_object_name": "TIANMU-1 16",
        "meta_object_id": "2024-004B",
        "meta_epoch": "2025-12-04T10:25:53.796288",
        "meta_mean_motion": 15.24253221,
        "meta_eccentricity": 0.00051101,
        "meta_inclination": 97.4569,
        "meta_ra_of_asc_node": 159.3334,
        "meta_arg_of_pericenter": 331.1239,
        "meta_mean_anomaly": 28.9715,
        "meta_ephemeris_type": 0,
        "meta_classification_type": "U",
        "meta_norad_cat_id": 58701,
        "meta_element_set_no": 999,
        "meta_rev_at_epoch": 10608,
        "meta_bstar": 8.3687681e-05,
        "meta_mean_motion_dot": 1.97e-05,
        "meta_mean_motion_ddot": 0,
        "tle_line1": "1 58701U 24004B   25338.43465042  .00001970  00000+0  83688-4 0  9993",
        "tle_line2": "2 58701  97.4569 159.3334 0005110 331.1239  28.9715 15.24253221106084"
      },
      "geometry": {
        "type": "Point",
        "coordinates": [
          154.99050127833738,
          32.60547776807867
        ]
      }
    },
    {
      "type": "Feature",
      "properties": {
        "norad_id": 58702,
        "name": "TIANMU-1 17",
        "group": "weather",
        "lat": 62.740728135760854,
        "lon": -5.066197360552575,
        "alt_km": 489.0660300128584,
        "timestamp": "2025-12-04T21:36:15.517114+00:00",
        "meta_object_name": "TIANMU-1 17",
        "meta_object_id": "2024-004C",
        "meta_epoch": "2025-12-04T14:47:39.156288",
        "meta_mean_motion": 15.24309612,
        "meta_eccentricity": 0.00042113,
        "meta_inclination": 97.4595,
        "meta_ra_of_asc_node": 159.9193,
        "meta_arg_of_pericenter": 334.177,
        "meta_mean_anomaly": 25.9256,
        "meta_ephemeris_type": 0,
        "meta_classification_type": "U",
        "meta_norad_cat_id": 58702,
        "meta_element_set_no": 999,
        "meta_rev_at_epoch": 10610,
        "meta_bstar": 0.00055526051,
        "meta_mean_motion_dot": 0.00013517,
        "meta_mean_motion_ddot": 0,
        "tle_line1": "1 58702U 24004C   25338.61642542  .00013517  00000+0  55526-3 0  9995",
        "tle_line2": "2 58702  97.4595 159.9193 0004211 334.1770  25.9256 15.24309612106103"
      },
      "geometry": {
        "type": "Point",
        "coordinates": [
          -5.066197360552575,
          62.740728135760854
        ]
      }
    },
    {
      "type": "Feature",
      "properties": {
        "norad_id": 58703,
        "name": "TIANMU-1 18",
        "group": "weather",
        "lat": -27.851295032082092,
        "lon": -23.575397534888594,
        "alt_km": 500.21133651743366,
        "timestamp": "2025-12-04T21:36:15.517124+00:00",
        "meta_object_name": "TIANMU-1 18",
        "meta_object_id": "2024-004D",
        "meta_epoch": "2025-12-04T15:58:04.334016",
        "meta_mean_motion": 15.24302008,
        "meta_eccentricity": 0.00035933,
        "meta_inclination": 97.4612,
        "meta_ra_of_asc_node": 160.1616,
        "meta_arg_of_pericenter": 334.9945,
        "meta_mean_anomaly": 25.1118,
        "meta_ephemeris_type": 0,
        "meta_classification_type": "U",
        "meta_norad_cat_id": 58703,
        "meta_element_set_no": 999,
        "meta_rev_at_epoch": 10611,
        "meta_bstar": 0.00057014379,
        "meta_mean_motion_dot": 0.00013878,
        "meta_mean_motion_ddot": 0,
        "tle_line1": "1 58703U 24004D   25338.66532794  .00013878  00000+0  57014-3 0  9992",
        "tle_line2": "2 58703  97.4612 160.1616 0003593 334.9945  25.1118 15.24302008106114"
      },
      "geometry": {
        "type": "Point",
        "coordinates": [
          -23.575397534888594,
          -27.851295032082092
        ]
      }
    },
    {
      "type": "Feature",
      "properties": {
        "norad_id": 58990,
        "name": "INSAT-3DS",
        "group": "weather",
        "lat": 0.022301683483386677,
        "lon": 120.07676806159989,
        "alt_km": 35792.69841325419,
        "timestamp": "2025-12-04T21:36:15.517136+00:00",
        "meta_object_name": "INSAT-3DS",
        "meta_object_id": "2024-033A",
        "meta_epoch": "2025-12-04T14:07:02.364384",
        "meta_mean_motion": 1.00268719,
        "meta_eccentricity": 0.00017583,
        "meta_inclination": 0.0119,
        "meta_ra_of_asc_node": 346.2482,
        "meta_arg_of_pericenter": 274.3669,
        "meta_mean_anomaly": 106.8853,
        "meta_ephemeris_type": 0,
        "meta_classification_type": "U",
        "meta_norad_cat_id": 58990,
        "meta_element_set_no": 999,
        "meta_rev_at_epoch": 4511,
        "meta_bstar": 0,
        "meta_mean_motion_dot": 0,
        "meta_mean_motion_ddot": 0,
        "tle_line1": "1 58990U 24033A   25338.58822181  .00000000  00000+0  00000+0 0  9997",
        "tle_line2": "2 58990   0.0119 346.2482 0001758 274.3669 106.8853  1.00268719 45117"
      },
      "geometry": {
        "type": "Point",
        "coordinates": [
          120.07676806159989,
          0.022301683483386677
        ]
      }
    },
    {
      "type": "Feature",
      "properties": {
        "norad_id": 59051,
        "name": "METEOR-M2 4",
        "group": "weather",
        "lat": 15.893519022118197,
        "lon": -66.55914488082853,
        "alt_km": 812.5240225579955,
        "timestamp": "2025-12-04T21:36:15.517147+00:00",
        "meta_object_name": "METEOR-M2 4",
        "meta_object_id": "2024-039A",
        "meta_epoch": "2025-12-04T14:46:33.832704",
        "meta_mean_motion": 14.22399331,
        "meta_eccentricity": 0.00074776,
        "meta_inclination": 98.6754,
        "meta_ra_of_asc_node": 295.6525,
        "meta_arg_of_pericenter": 21.2209,
        "meta_mean_anomaly": 338.9278,
        "meta_ephemeris_type": 0,
        "meta_classification_type": "U",
        "meta_norad_cat_id": 59051,
        "meta_element_set_no": 999,
        "meta_rev_at_epoch": 9160,
        "meta_bstar": 6.1654253e-05,
        "meta_mean_motion_dot": 9.4e-07,
        "meta_mean_motion_ddot": 0,
        "tle_line1": "1 59051U 24039A   25338.61566936  .00000094  00000+0  61654-4 0  9999",
        "tle_line2": "2 59051  98.6754 295.6525 0007477  21.2209 338.9278 14.22399331 91609"
      },
      "geometry": {
        "type": "Point",
        "coordinates": [
          -66.55914488082853,
          15.893519022118197
        ]
      }
    },
    {
      "type": "Feature",
      "properties": {
        "norad_id": 60133,
        "name": "GOES 19",
        "group": "weather",
        "lat": -4.30303084279748e-06,
        "lon": -37.163404528205206,
        "alt_km": 35781.322279080225,
        "timestamp": "2025-12-04T21:36:15.517158+00:00",
        "meta_object_name": "GOES 19",
        "meta_object_id": "2024-119A",
        "meta_epoch": "2025-12-04T11:39:20.571264",
        "meta_mean_motion": 1.00270587,
        "meta_eccentricity": 0.00013442,
        "meta_inclination": 0.0089,
        "meta_ra_of_asc_node": 79.6571,
        "meta_arg_of_pericenter": 218.516,
        "meta_mean_anomaly": 235.0408,
        "meta_ephemeris_type": 0,
        "meta_classification_type": "U",
        "meta_norad_cat_id": 60133,
        "meta_element_set_no": 999,
        "meta_rev_at_epoch": 501,
        "meta_bstar": 0,
        "meta_mean_motion_dot": -2.33e-06,
        "meta_mean_motion_ddot": 0,
        "tle_line1": "1 60133U 24119A   25338.48565476 -.00000233  00000+0  00000+0 0  9993",
        "tle_line2": "2 60133   0.0089  79.6571 0001344 218.5160 235.0408  1.00270587  5010"
      },
      "geometry": {
        "type": "Point",
        "coordinates": [
          -37.163404528205206,
          -4.30303084279748e-06
        ]
      }
    },
    {
      "type": "Feature",
      "properties": {
        "norad_id": 65815,
        "name": "FENGYUN 3H",
        "group": "weather",
        "lat": -34.15702692154018,
        "lon": -75.40534184309868,
        "alt_km": 831.9751828363997,
        "timestamp": "2025-12-04T21:36:15.517169+00:00",
        "meta_object_name": "FENGYUN 3H",
        "meta_object_id": "2025-219A",
        "meta_epoch": "2025-12-04T15:00:07.586784",
        "meta_mean_motion": 14.19901143,
        "meta_eccentricity": 6.2e-05,
        "meta_inclination": 98.6572,
        "meta_ra_of_asc_node": 278.3922,
        "meta_arg_of_pericenter": 73.6014,
        "meta_mean_anomaly": 286.5231,
        "meta_ephemeris_type": 0,
        "meta_classification_type": "U",
        "meta_norad_cat_id": 65815,
        "meta_element_set_no": 999,
        "meta_rev_at_epoch": 977,
        "meta_bstar": 0.00011439544,
        "meta_mean_motion_dot": 2e-06,
        "meta_mean_motion_ddot": 0,
        "tle_line1": "1 65815U 25219A   25338.62508781  .00000200  00000+0  11440-3 0  9996",
        "tle_line2": "2 65815  98.6572 278.3922 0000620  73.6014 286.5231 14.19901143  9779"
      },
      "geometry": {
        "type": "Point",
        "coordinates": [
          -75.40534184309868,
          -34.15702692154018
        ]
      }
    }
  ]
}